OBJECT_NAME,OBJECT_ID,EPOCH,MEAN_MOTION,ECCENTRICITY,INCLINATION,RA_OF_ASC_NODE,ARG_OF_PERICENTER,MEAN_ANOMALY,EPHEMERIS_TYPE,CLASSIFICATION_TYPE,NORAD_CAT_ID,ELEMENT_SET_NO,REV_AT_EPOCH,BSTAR,MEAN_MOTION_DOT,MEAN_MOTION_DDOT
ONEWEB-0360,2021-090H,2026-06-13T14:33:48.220704,13.20772463,.00020381,87.9191,275.1542,102.9325,257.2036,0,U,49286,999,22937,-.28940104E-3,-.105E-5,0
ONEWEB-0361,2021-090J,2026-06-13T06:50:45.780576,13.20771504,.00021008,87.9193,275.2165,98.7647,261.3725,0,U,49287,999,22978,.19025927E-3,.9E-6,0
ONEWEB-0362,2021-090K,2026-06-13T09:16:23.548224,13.19723596,.00018654,87.9165,305.7353,106.5444,253.5894,0,U,49288,999,22641,-.28499593E-3,-.101E-5,0
ONEWEB-0363,2021-090L,2026-06-13T14:28:56.121312,13.20770780,.00020832,87.9192,275.1533,91.4918,268.6454,0,U,49289,999,22983,-.97388183E-4,-.27E-6,0
ONEWEB-0364,2021-090M,2026-06-13T13:35:36.748320,13.20771371,.00020052,87.9191,275.1688,100.7609,259.3750,0,U,49290,999,23096,.16397301E-4,.2E-6,0
ONEWEB-0365,2021-090N,2026-06-13T14:57:34.413408,13.19725113,.00017818,87.9172,305.6762,99.9784,260.1550,0,U,49291,999,22595,.91683323E-4,.5E-6,0
ONEWEB-0366,2021-090P,2026-06-13T15:07:12.022464,13.14503033,.00019525,87.8958,290.4156,100.1509,259.9841,0,U,49292,999,22709,.28910917E-3,.12E-5,0
ONEWEB-0367,2021-090Q,2026-06-13T14:27:44.698752,13.20769255,.00018433,87.9193,275.1546,105.3517,254.7820,0,U,49293,999,22935,-.352331E-3,-.13E-5,0
ONEWEB-0368,2021-090R,2026-06-13T08:22:52.444704,13.20770033,.00015178,87.9183,275.2161,81.0549,279.0756,0,U,49294,999,23047,.13767568E-3,.69E-6,0
ONEWEB-0369,2021-090S,2026-06-13T14:50:45.267936,13.19725283,.00017862,87.9165,305.6851,97.2950,262.8386,0,U,49295,999,22594,.1004352E-3,.53E-6,0
ONEWEB-0370,2021-090T,2026-06-13T12:51:58.047264,13.20770962,.00021651,87.9191,275.1676,106.2579,253.8793,0,U,49296,999,22938,.13539812E-3,.68E-6,0
ONEWEB-0371,2021-090U,2026-06-13T09:34:35.345280,13.19724779,.00018262,87.9172,305.7208,101.6521,258.4817,0,U,49297,999,22595,.10443513E-3,.55E-6,0
ONEWEB-0372,2021-090V,2026-06-13T14:26:18.759264,13.20771775,.00019365,87.9193,275.1561,101.1834,258.9518,0,U,49298,999,22936,-.86781807E-4,-.22E-6,0
ONEWEB-0373,2021-090W,2026-06-13T13:13:47.773632,13.20771756,.00020808,87.9190,275.1666,100.5464,259.5904,0,U,49299,999,23054,.25122418E-3,.115E-5,0
ONEWEB-0374,2021-090X,2026-06-13T14:48:55.866528,13.14503801,.00022322,87.8963,290.4087,86.0208,274.1177,0,U,49300,999,22709,-.16094115E-3,-.47E-6,0
ONEWEB-0375,2021-090Y,2026-06-13T12:56:50.039520,13.20771616,.00023714,87.9192,275.1607,88.8606,271.2799,0,U,49301,999,23004,.51192792E-4,.34E-6,0
ONEWEB-0376,2021-090Z,2026-06-13T14:59:50.669664,13.19725343,.00016662,87.9173,305.6758,100.1237,260.0084,0,U,49302,999,22598,.34469962E-4,.27E-6,0
ONEWEB-0377,2021-090AA,2026-06-13T14:26:42.340416,13.20782817,.00021987,87.9193,275.1502,98.5556,261.5827,0,U,49303,999,23004,.25937665E-2,.1068E-4,0
ONEWEB-0378,2021-090AB,2026-06-13T13:06:42.767712,13.20770846,.00019978,87.9188,275.1663,96.4324,263.7037,0,U,49304,999,22930,.21026234E-3,.98E-6,0
ONEWEB-0379,2021-090AC,2026-06-13T14:42:04.430592,13.14502636,.00019208,87.8961,290.4205,96.1326,264.0022,0,U,49305,999,22709,-.55867217E-3,-.194E-5,0
ONEWEB-0380,2021-090AD,2026-06-13T14:55:18.517440,13.19725009,.00020638,87.9165,305.6819,97.3871,262.7496,0,U,49306,999,22595,.11387583E-4,.18E-6,0
ONEWEB-0381,2021-090AE,2026-06-13T14:21:40.826880,13.20771978,.00020941,87.9193,275.1554,93.3644,266.7729,0,U,49307,999,22935,-.19732252E-3,-.67E-6,0
ONEWEB-0382,2021-090AF,2026-06-13T14:02:15.882720,13.20770066,.00020504,87.9188,275.1525,92.3042,267.8326,0,U,49308,999,22934,-.12002931E-3,-.36E-6,0
ONEWEB-0383,2021-090AG,2026-06-13T14:32:55.107168,13.14501145,.00018778,87.8965,290.4130,95.2170,264.9174,0,U,49309,999,22712,-.54935156E-3,-.191E-5,0
ONEWEB-0384,2021-090AH,2026-06-13T13:46:04.723392,13.20812401,.00020132,87.9195,275.1985,86.5581,273.5783,0,U,49310,999,22935,.21938393E-3,.102E-5,0
ONEWEB-0385,2021-090AJ,2026-06-13T08:25:19.202880,13.20772705,.00020378,87.9192,275.2045,94.5579,265.5787,0,U,49311,999,22929,.15588065E-3,.76E-6,0
ONEWEB-0386,2021-090AK,2026-06-13T14:16:49.920672,13.20771666,.00019705,87.9195,275.1465,92.8100,267.3259,0,U,49312,999,22934,-.11894146E-3,-.35E-6,0
ONEWEB-0387,2021-090AL,2026-06-13T13:55:00.811200,13.20772524,.00023309,87.9183,275.1723,97.1015,263.0384,0,U,49313,999,22934,.22350091E-3,.104E-5,0
ONEWEB-0388,2021-090AM,2026-06-13T14:48:29.098944,13.19725173,.00018641,87.9166,305.6808,93.5774,266.5572,0,U,49314,999,22594,.30873191E-4,.25E-6,0
ONEWEB-0389,2021-132A,2026-06-13T15:06:47.461536,13.17649317,.00021793,87.9135,6.5759,82.8206,277.3173,0,U,50469,999,21761,.12354003E-3,.61E-6,0
ONEWEB-0390,2021-132B,2026-06-13T13:19:52.411008,13.17648546,.00019427,87.9135,6.5915,94.1455,265.9899,0,U,50470,999,21760,.11111733E-3,.56E-6,0
ONEWEB-0391,2021-132C,2026-06-13T15:11:39.160896,13.17648812,.00026853,87.9136,6.5858,87.7270,272.4169,0,U,50471,999,21761,.82982774E-4,.45E-6,0
ONEWEB-0392,2021-132D,2026-06-13T14:06:03.303072,13.17648947,.00022518,87.9145,6.5630,84.4033,275.7355,0,U,50472,999,21764,.66770639E-4,.39E-6,0
ONEWEB-0393,2021-132E,2026-06-13T13:30:48.646656,13.17650311,.00020244,87.9137,6.5851,85.3113,274.8249,0,U,50473,999,21763,.18752916E-3,.86E-6,0
ONEWEB-0394,2021-132F,2026-06-13T12:45:58.366656,13.18676512,.00019839,87.9166,336.1695,86.1608,273.9751,0,U,50474,999,22111,-.14341851E-2,-.552E-5,0
ONEWEB-0395,2021-132G,2026-06-13T13:56:47.020128,13.11419588,.0001999,87.8888,21.7853,89.2654,270.8703,0,U,50475,999,21524,.10214499E-2,.375E-5,0
ONEWEB-0396,2021-132H,2026-06-13T12:36:14.106528,13.18684630,.00019491,87.9168,336.1833,87.9714,272.1642,0,U,50476,999,22115,.12304905E-3,.61E-6,0
ONEWEB-0397,2021-132J,2026-06-13T11:08:49.787232,13.18685105,.00018905,87.9167,336.1953,84.1873,275.9474,0,U,50477,999,22112,.35879223E-4,.27E-6,0
ONEWEB-0398,2021-132K,2026-06-13T15:00:14.152320,13.11415608,.00019132,87.8892,21.7669,94.7835,265.3511,0,U,50478,999,21514,-.11730212E-2,-.403E-5,0
ONEWEB-0399,2021-132L,2026-06-13T14:40:43.397760,13.11414637,.00021965,87.8897,21.7802,75.8322,284.3050,0,U,50479,999,21513,.22343692E-3,.92E-6,0
ONEWEB-0400,2021-132M,2026-06-13T12:26:31.918272,13.18685659,.00019186,87.9168,336.1745,97.4454,262.6896,0,U,50480,999,22112,.67494413E-4,.4E-6,0
ONEWEB-0401,2021-132N,2026-06-13T11:42:49.319712,13.18685018,.00016684,87.9169,336.1775,86.9007,273.2316,0,U,50481,999,22112,.73050026E-4,.42E-6,0
ONEWEB-0402,2021-132P,2026-06-13T12:38:40.925184,13.18685477,.00015884,87.9168,336.1593,79.0248,281.1063,0,U,50482,999,22115,.13519922E-4,.18E-6,0
ONEWEB-0403,2021-132Q,2026-06-13T13:15:05.169024,13.18685318,.0001977,87.9168,336.1784,90.4101,269.7258,0,U,50483,999,22111,.98271321E-4,.52E-6,0
ONEWEB-0404,2021-132R,2026-06-13T14:13:52.886208,13.11417155,.00021377,87.8893,21.7827,83.7566,276.3805,0,U,50484,999,21522,.14836644E-2,.539E-5,0
ONEWEB-0405,2021-132S,2026-06-13T11:45:15.757344,13.18686390,.00019462,87.9172,336.1751,105.5071,254.6276,0,U,50485,999,22150,.19945189E-4,.21E-6,0
ONEWEB-0406,2021-132T,2026-06-13T13:22:22.437696,13.18685559,.00023536,87.9164,336.1784,87.3553,272.7848,0,U,50486,999,22114,.31461939E-4,.25E-6,0
ONEWEB-0407,2021-132U,2026-06-13T13:12:40.239936,13.18685313,.00016335,87.9169,336.1718,94.4725,265.6594,0,U,50487,999,22108,-.41526861E-4,-.3E-7,0
ONEWEB-0409,2021-132V,2026-06-13T14:11:25.738368,13.11418292,.00020991,87.8897,21.7710,86.6742,273.4627,0,U,50488,999,21511,.1495968E-2,.543E-5,0
ONEWEB-0412,2021-132W,2026-06-13T11:06:23.820480,13.18684894,.00016587,87.9165,336.1979,83.4714,276.6607,0,U,50489,999,22116,.83066506E-4,.46E-6,0
ONEWEB-0413,2021-132X,2026-06-13T11:13:42.972672,13.18670719,.00015259,87.9156,336.1957,87.1750,272.9557,0,U,50490,999,22110,-.46878935E-2,-.1834E-4,0
ONEWEB-0414,2021-132Y,2026-06-13T12:41:05.990784,13.18685503,.00018456,87.9168,336.1653,86.0907,274.0436,0,U,50491,999,22114,.74331832E-4,.42E-6,0
ONEWEB-0417,2021-132Z,2026-06-13T12:53:14.274528,13.18685343,.00020772,87.9159,336.1835,91.3292,268.8078,0,U,50492,999,22112,.55992002E-4,.35E-6,0
ONEWEB-0418,2021-132AA,2026-06-13T13:07:35.689440,13.18694752,.00021063,87.9170,336.1810,91.2582,268.8792,0,U,50493,999,22118,.2200049E-2,.88E-5,0
ONEWEB-0419,2021-132AB,2026-06-13T11:45:02.863008,13.18665913,.00020874,87.9168,336.1916,97.2256,262.9114,0,U,50494,999,22109,.9866226E-4,.52E-6,0
ONEWEB-0420,2021-132AC,2026-06-13T10:54:15.666336,13.18685304,.0001647,87.9161,336.2022,94.6358,265.4963,0,U,50495,999,22108,.5300564E-5,.15E-6,0
ONEWEB-0421,2021-132AD,2026-06-13T12:33:48.551040,13.18684656,.00018473,87.9165,336.1858,80.3102,279.8239,0,U,50496,999,22113,-.51779841E-4,-.8E-7,0
ONEWEB-0424,2021-132AE,2026-06-13T11:37:58.128384,13.18685426,.00020415,87.9168,336.1913,101.1574,258.9788,0,U,50497,999,22115,.15627297E-3,.75E-6,0
ONEWEB-0426,2021-132AF,2026-06-13T12:27:44.095968,13.18689041,.00023521,87.9168,336.1757,78.1127,282.0269,0,U,50498,999,22110,.20782618E-3,.95E-6,0
ONEWEB-0427,2021-132AG,2026-06-13T11:35:32.479584,13.18685228,.00020426,87.9170,336.1714,90.2563,269.8803,0,U,50499,999,22112,.14889214E-3,.72E-6,0
ONEWEB-0429,2021-132AH,2026-06-13T11:16:07.004064,13.18685682,.00017114,87.9161,336.1989,93.1599,266.9729,0,U,50500,999,22109,.14738712E-3,.71E-6,0
ONEWEB-0430,2021-132AJ,2026-06-13T10:59:06.956160,13.18686392,.00017526,87.9162,336.1996,100.5538,259.5792,0,U,50501,999,22113,.29194312E-3,.128E-5,0
ONEWEB-0432,2021-132AK,2026-06-13T11:55:17.840064,13.17154904,.00020884,87.9169,336.1673,109.4109,250.7248,0,U,50502,999,22109,.1039763E-3,.53E-6,0
ONEWEB-0440,2021-132AL,2026-06-13T13:17:30.894720,13.18685313,.00015965,87.9170,336.1762,84.0034,276.1280,0,U,50503,999,22109,-.23091993E-4,.4E-7,0
ONEWEB-0450,2021-132AM,2026-06-13T11:18:44.933760,13.18686268,.00016645,87.9158,336.1983,95.5020,264.6302,0,U,50504,999,22111,.11496468E-4,.17E-6,0
